{
  "type": "FeatureCollection",
  "features": [
    {
      "type": "Feature",
      "properties": {
        "norad_id": 44334,
        "name": "EUTELSAT 7C",
        "group": "eutelsat",
        "lat": 0.006390689938664009,
        "lon": -10.48053556592506,
        "alt_km": 35785.505073895605,
        "timestamp": "2025-12-21T16:47:54.400431+00:00",
        "meta_object_name": "EUTELSAT 7C",
        "meta_object_id": "2019-034B",
        "meta_epoch": "2025-12-21T06:43:38.847072",
        "meta_mean_motion": 1.00275605,
        "meta_eccentricity": 0.0003295,
        "meta_inclination": 0.0735,
        "meta_ra_of_asc_node": 179.9095,
        "meta_arg_of_pericenter": 77.2937,
        "meta_mean_anomaly": 300.8021,
        "meta_ephemeris_type": 0,
        "meta_classification_type": "U",
        "meta_norad_cat_id": 44334,
        "meta_element_set_no": 999,
        "meta_rev_at_epoch": 505,
        "meta_bstar": 0,
        "meta_mean_motion_dot": 7.2e-07,
        "meta_mean_motion_ddot": 0,
        "tle_line1": "1 44334U 19034B   25355.28031073  .00000072  00000+0  00000+0 0  9996",
        "tle_line2": "2 44334   0.0735 179.9095 0003295  77.2937 300.8021  1.00275605  5059"
      },
      "geometry": {
        "type": "Point",
        "coordinates": [
          -10.48053556592506,
          0.006390689938664009
        ]
      }
    },
    {
      "type": "Feature",
      "properties": {
        "norad_id": 44624,
        "name": "EUTELSAT 5 WEST B",
        "group": "eutelsat",
        "lat": -0.007672399503454021,
        "lon": -22.47994205095609,
        "alt_km": 35781.313989013295,
        "timestamp": "2025-12-21T16:47:54.400446+00:00",
        "meta_object_name": "EUTELSAT 5 WEST B",
        "meta_object_id": "2019-067A",
        "meta_epoch": "2025-12-21T09:44:56.694336",
        "meta_mean_motion": 1.00271339,
        "meta_eccentricity": 0.0003009,
        "meta_inclination": 0.0661,
        "meta_ra_of_asc_node": 336.7773,
        "meta_arg_of_pericenter": 293.2552,
        "meta_mean_anomaly": 321.4345,
        "meta_ephemeris_type": 0,
        "meta_classification_type": "U",
        "meta_norad_cat_id": 44624,
        "meta_element_set_no": 999,
        "meta_rev_at_epoch": 2265,
        "meta_bstar": 0,
        "meta_mean_motion_dot": -1.9e-07,
        "meta_mean_motion_ddot": 0,
        "tle_line1": "1 44624U 19067A   25355.40621174 -.00000019  00000+0  00000+0 0  9997",
        "tle_line2": "2 44624   0.0661 336.7773 0003009 293.2552 321.4345  1.00271339 22654"
      },
      "geometry": {
        "type": "Point",
        "coordinates": [
          -22.47994205095609,
          -0.007672399503454021
        ]
      }
    },
    {
      "type": "Feature",
      "properties": {
        "norad_id": 45027,
        "name": "EUTELSAT KONNECT",
        "group": "eutelsat",
        "lat": -0.0681509240798354,
        "lon": -10.31093185486233,
        "alt_km": 35787.92014300875,
        "timestamp": "2025-12-21T16:47:54.400458+00:00",
        "meta_object_name": "EUTELSAT KONNECT",
        "meta_object_id": "2020-005B",
        "meta_epoch": "2025-12-21T08:05:43.696320",
        "meta_mean_motion": 1.00264528,
        "meta_eccentricity": 0.0001118,
        "meta_inclination": 0.0691,
        "meta_ra_of_asc_node": 94.9021,
        "meta_arg_of_pericenter": 166.8613,
        "meta_mean_anomaly": 317.0282,
        "meta_ephemeris_type": 0,
        "meta_classification_type": "U",
        "meta_norad_cat_id": 45027,
        "meta_element_set_no": 999,
        "meta_rev_at_epoch": 2255,
        "meta_bstar": 0,
        "meta_mean_motion_dot": 7.1e-07,
        "meta_mean_motion_ddot": 0,
        "tle_line1": "1 45027U 20005B   25355.33731130  .00000071  00000+0  00000+0 0  9992",
        "tle_line2": "2 45027   0.0691  94.9021 0001118 166.8613 317.0282  1.00264528 22558"
      },
      "geometry": {
        "type": "Point",
        "coordinates": [
          -10.31093185486233,
          -0.0681509240798354
        ]
      }
    },
    {
      "type": "Feature",
      "properties": {
        "norad_id": 49056,
        "name": "EUTELSAT QUANTUM",
        "group": "eutelsat",
        "lat": 0.003400216754818938,
        "lon": 30.227838250112317,
        "alt_km": 35790.81052092443,
        "timestamp": "2025-12-21T16:47:54.400469+00:00",
        "meta_object_name": "EUTELSAT QUANTUM",
        "meta_object_id": "2021-069B",
        "meta_epoch": "2025-12-21T09:59:47.771232",
        "meta_mean_motion": 1.00272395,
        "meta_eccentricity": 0.0003348,
        "meta_inclination": 0.0212,
        "meta_ra_of_asc_node": 40.4204,
        "meta_arg_of_pericenter": 239.5399,
        "meta_mean_anomaly": 7.9319,
        "meta_ephemeris_type": 0,
        "meta_classification_type": "U",
        "meta_norad_cat_id": 49056,
        "meta_element_set_no": 999,
        "meta_rev_at_epoch": 1614,
        "meta_bstar": 0,
        "meta_mean_motion_dot": 1.48e-06,
        "meta_mean_motion_ddot": 0,
        "tle_line1": "1 49056U 21069B   25355.41652513  .00000148  00000+0  00000+0 0  9990",
        "tle_line2": "2 49056   0.0212  40.4204 0003348 239.5399   7.9319  1.00272395 16143"
      },
      "geometry": {
        "type": "Point",
        "coordinates": [
          30.227838250112317,
          0.003400216754818938
        ]
      }
    },
    {
      "type": "Feature",
      "properties": {
        "norad_id": 53765,
        "name": "EUTELSAT KONNECT VHTS",
        "group": "eutelsat",
        "lat": -0.0587885765092031,
        "lon": -14.74951371904328,
        "alt_km": 35790.96874984498,
        "timestamp": "2025-12-21T16:47:54.400480+00:00",
        "meta_object_name": "EUTELSAT KONNECT VHTS",
        "meta_object_id": "2022-110A",
        "meta_epoch": "2025-12-21T09:47:03.990048",
        "meta_mean_motion": 1.00269954,
        "meta_eccentricity": 0.0002638,
        "meta_inclination": 0.0616,
        "meta_ra_of_asc_node": 99.389,
        "meta_arg_of_pericenter": 132.3809,
        "meta_mean_anomaly": 7.9646,
        "meta_ephemeris_type": 0,
        "meta_classification_type": "U",
        "meta_norad_cat_id": 53765,
        "meta_element_set_no": 999,
        "meta_rev_at_epoch": 504,
        "meta_bstar": 0,
        "meta_mean_motion_dot": 4e-07,
        "meta_mean_motion_ddot": 0,
        "tle_line1": "1 53765U 22110A   25355.40768507  .00000040  00000+0  00000+0 0  9991",
        "tle_line2": "2 53765   0.0616  99.3890 0002638 132.3809   7.9646  1.00269954  5041"
      },
      "geometry": {
        "type": "Point",
        "coordinates": [
          -14.74951371904328,
          -0.0587885765092031
        ]
      }
    },
    {
      "type": "Feature",
      "properties": {
        "norad_id": 54048,
        "name": "EUTELSAT HOTBIRD 13F",
        "group": "eutelsat",
        "lat": 0.04167623667320909,
        "lon": -4.529946187479544,
        "alt_km": 35777.03528746045,
        "timestamp": "2025-12-21T16:47:54.400492+00:00",
        "meta_object_name": "EUTELSAT HOTBIRD 13F",
        "meta_object_id": "2022-134A",
        "meta_epoch": "2025-12-21T06:42:50.848416",
        "meta_mean_motion": 1.00269817,
        "meta_eccentricity": 0.0002333,
        "meta_inclination": 0.052,
        "meta_ra_of_asc_node": 291.9077,
        "meta_arg_of_pericenter": 75.9758,
        "meta_mean_anomaly": 195.9245,
        "meta_ephemeris_type": 0,
        "meta_classification_type": "U",
        "meta_norad_cat_id": 54048,
        "meta_element_set_no": 999,
        "meta_rev_at_epoch": 1159,
        "meta_bstar": 0,
        "meta_mean_motion_dot": 1.1e-06,
        "meta_mean_motion_ddot": 0,
        "tle_line1": "1 54048U 22134A   25355.27975519  .00000110  00000+0  00000+0 0  9998",
        "tle_line2": "2 54048   0.0520 291.9077 0002333  75.9758 195.9245  1.00269817 11592"
      },
      "geometry": {
        "type": "Point",
        "coordinates": [
          -4.529946187479544,
          0.04167623667320909
        ]
      }
    },
    {
      "type": "Feature",
      "properties": {
        "norad_id": 54225,
        "name": "EUTELSAT HOTBIRD 13G",
        "group": "eutelsat",
        "lat": 0.032762382015545814,
        "lon": -4.524194591342867,
        "alt_km": 35794.48116694943,
        "timestamp": "2025-12-21T16:47:54.400503+00:00",
        "meta_object_name": "EUTELSAT HOTBIRD 13G",
        "meta_object_id": "2022-146A",
        "meta_epoch": "2025-12-21T08:07:28.528032",
        "meta_mean_motion": 1.00270673,
        "meta_eccentricity": 0.0001938,
        "meta_inclination": 0.053,
        "meta_ra_of_asc_node": 228.376,
        "meta_arg_of_pericenter": 305.0726,
        "meta_mean_anomaly": 51.5735,
        "meta_ephemeris_type": 0,
        "meta_classification_type": "U",
        "meta_norad_cat_id": 54225,
        "meta_element_set_no": 999,
        "meta_rev_at_epoch": 568,
        "meta_bstar": 0,
        "meta_mean_motion_dot": 1.1e-06,
        "meta_mean_motion_ddot": 0,
        "tle_line1": "1 54225U 22146A   25355.33852463  .00000110  00000+0  00000+0 0  9997",
        "tle_line2": "2 54225   0.0530 228.3760 0001938 305.0726  51.5735  1.00270673  5681"
      },
      "geometry": {
        "type": "Point",
        "coordinates": [
          -4.524194591342867,
          0.032762382015545814
        ]
      }
    }
  ]
}